OBJECT_NAME,OBJECT_ID,EPOCH,MEAN_MOTION,ECCENTRICITY,INCLINATION,RA_OF_ASC_NODE,ARG_OF_PERICENTER,MEAN_ANOMALY,EPHEMERIS_TYPE,CLASSIFICATION_TYPE,NORAD_CAT_ID,ELEMENT_SET_NO,REV_AT_EPOCH,BSTAR,MEAN_MOTION_DOT,MEAN_MOTION_DDOT
LEMUR-1,2014-033AL,2026-07-04T03:15:58.929408,14.85310183,.00487103,97.7895,334.5665,24.1517,336.1967,0,U,40044,999,64798,.25543302E-3,.2186E-4,0
LEMUR-2-GREENBERG,2017-042N,2026-07-03T17:56:11.665536,15.31844713,.00072963,97.3824,5.3011,308.8490,51.2100,0,U,42837,999,49092,.60520586E-3,.18569E-3,0
LEMUR-2-ANDIS,2017-042P,2026-07-04T06:13:22.012320,15.35550599,.00072231,97.3685,6.0558,304.5319,55.5242,0,U,42838,999,49107,.97068298E-3,.33593E-3,0
LEMUR-2-MONSON,2017-042Q,2026-07-04T06:00:41.362272,15.28515854,.00052037,97.4090,5.7483,295.2682,64.8018,0,U,42839,999,49077,.78238365E-3,.21683E-3,0
LEMUR-2-FURIAUS,2017-042R,2026-07-04T05:02:39.733440,15.30826092,.00069078,97.3776,3.6789,12.1279,348.0127,0,U,42840,999,49081,.81030711E-3,.24129E-3,0
LEMUR-2-PETERG,2017-042S,2026-07-04T06:05:32.782560,15.34660691,.00027863,97.3995,10.3194,274.0784,86.0140,0,U,42841,999,49105,.11011809E-2,.37047E-3,0
LEMUR-2-DEMBITZ,2017-042T,2026-07-04T05:30:56.306304,15.30823643,.00054167,97.3827,6.7348,323.7890,36.2983,0,U,42842,999,49095,.76622102E-3,.228E-3,0
LEMUR-2-ZACHARY,2017-042W,2026-07-03T12:19:07.708224,15.51735586,.00023174,97.3585,16.5115,307.6992,52.4050,0,U,42845,999,49173,.92276158E-3,.55199E-3,0
LEMUR-2-AMANDA-SVANTE,2021-034B,2026-07-03T17:19:57.056160,15.35322296,.00038687,97.5753,263.4542,168.8216,191.3113,0,U,48269,999,28359,.10611829E-2,.36457E-3,0
LEMUR-2-SPECIAL-K,2021-034F,2026-07-03T04:17:56.364576,15.69836686,.00055934,97.5649,272.2532,221.5890,138.4947,0,U,48273,999,28419,.16497421E-2,.201063E-2,0
LEMUR-2-EMBRIONOVIS,2023-084AQ,2026-07-04T02:53:24.894528,15.37986952,.00076334,97.6316,329.9759,250.0564,109.9858,0,U,56970,999,17028,.46910467E-3,.17476E-3,0
LEMUR-2-DEVERILL-M-T,2023-100F,2026-07-04T01:28:43.444416,15.40610222,.00049817,99.4455,228.7031,346.0189,14.0912,0,U,57391,999,16384,.85512045E-3,.34832E-3,0
LEMUR-2-BASS,2023-174D,2026-07-03T17:50:34.417824,15.43659511,.00080493,97.3847,269.6928,112.3430,247.8671,0,U,58259,999,14791,.45158793E-3,.20308E-3,0
LEMUR-2-JK0903EM1407,2023-174CJ,2026-07-04T05:29:11.628384,15.52578542,.00044652,97.3923,276.1897,68.8565,291.3164,0,U,58336,999,14837,.63367869E-3,.38967E-3,0
LEMUR-2-MJR092620,2023-174CN,2026-07-04T04:34:28.182144,15.45518305,.00062405,97.3976,275.5395,66.4239,293.7665,0,U,58340,999,14827,.56620277E-3,.27154E-3,0
LEMUR-2-NIMBUS2000,2024-022A,2026-07-04T00:49:27.114240,15.40707114,.00097682,97.4090,35.2523,64.6794,295.5463,0,U,58899,999,13486,.71326549E-3,.29162E-3,0
LEMUR-2-VALHALLA,2024-022B,2026-07-04T00:50:24.555552,15.40195193,.00102849,97.4085,35.2329,60.2993,299.9276,0,U,58900,999,13486,.49675526E-3,.19924E-3,0
LEMUR-2-CAEL,2024-022E,2026-07-04T00:43:47.639136,15.41534845,.00083407,97.4069,36.1943,46.7317,313.4624,0,U,58903,999,13493,.5135776E-3,.21527E-3,0
LEMUR-2-JOHNNYTRUONG,2024-043BA,2026-07-03T08:49:33.917088,15.61717750,.00045637,97.5391,337.0873,128.0630,232.1040,0,U,59146,999,13056,.47152974E-3,.4071E-3,0
LEMUR-2-TOMATOKECHUP,2024-149D,2026-07-03T23:28:26.888736,15.36385232,.00028009,97.3794,267.0710,142.9581,217.1857,0,U,60471,999,10474,.37752314E-3,.13325E-3,0
LEMUR-2-STELLA,2024-149BT,2026-07-03T18:13:18.349824,15.12166400,.00012692,97.6735,267.2900,101.6081,258.5292,0,U,60533,999,10300,.78153269E-3,.13429E-3,0
LEMUR-2-MARHISYAM,2024-149BW,2026-07-04T05:01:04.894752,15.11598158,.00031353,97.6878,268.2083,87.7673,272.3915,0,U,60536,999,10305,.80573388E-3,.13632E-3,0
LEMUR-2-AHMED-ASRAR,2024-149DN,2026-07-03T23:05:25.379520,15.13096104,.0000311,97.7003,270.1182,318.3117,41.8090,0,U,60576,999,10310,.8301476E-3,.14646E-3,0
LEMUR-2-LLOYD,2024-149DP,2026-07-04T00:19:20.017632,15.09573260,.00052638,97.6745,266.1544,98.3945,261.7881,0,U,60577,999,10293,.83146213E-3,.13307E-3,0
LEMUR-2-SQUIRRELCOMM,2024-149DQ,2026-07-04T02:49:52.955328,15.07345620,.00050544,97.6701,265.9770,7.4037,352.7264,0,U,60578,999,10295,.55792777E-3,.8376E-4,0
LEMUR-2-SIERRINI,2024-149DR,2026-07-03T23:18:28.703520,15.11311030,.00064098,97.6843,267.6410,119.8240,240.3628,0,U,60579,999,10299,.8647831E-3,.14526E-3,0
LEMUR-2-WILSON,2025-009CP,2026-07-03T23:01:32.120256,14.95238508,.00027993,97.7019,263.1299,13.2325,346.8968,0,U,62694,999,7986,.30449197E-3,.3293E-4,0
LEMUR-2-STAR-FOX,2025-009CR,2026-07-03T22:34:37.386336,15.02725317,.00038268,97.6939,266.4303,77.4952,282.6701,0,U,62696,999,8007,.67372314E-3,.8946E-4,0
LEMUR-2-ARIANNA,2025-009CU,2026-07-03T17:44:45.214944,15.02720243,.00041826,97.6880,265.9919,82.6566,277.5134,0,U,62699,999,8004,.67249309E-3,.8928E-4,0
