LEMUR-1                 
1 40044U 14033AL  26185.13609872  .00002186  00000+0  25543-3 0  9999
2 40044  97.7895 334.5665 0048710  24.1517 336.1967 14.85310183647984
LEMUR-2-GREENBERG       
1 42837U 17042N   26184.74735724  .00018569  00000+0  60521-3 0  9993
2 42837  97.3824   5.3011 0007296 308.8490  51.2100 15.31844713490925
LEMUR-2-ANDIS           
1 42838U 17042P   26185.25928255  .00033593  00000+0  97068-3 0  9994
2 42838  97.3685   6.0558 0007223 304.5319  55.5242 15.35550599491079
LEMUR-2-MONSON          
1 42839U 17042Q   26185.25047873  .00021683  00000+0  78238-3 0  9998
2 42839  97.4090   5.7483 0005203 295.2682  64.8018 15.28515854490776
LEMUR-2-FURIAUS         
1 42840U 17042R   26185.21018210  .00024129  00000+0  81031-3 0  9992
2 42840  97.3776   3.6789 0006907  12.1279 348.0127 15.30826092490819
LEMUR-2-PETERG          
1 42841U 17042S   26185.25385165  .00037047  00000+0  11012-2 0  9997
2 42841  97.3995  10.3194 0002786 274.0784  86.0140 15.34660691491055
LEMUR-2-DEMBITZ         
1 42842U 17042T   26185.22981836  .00022800  00000+0  76622-3 0  9992
2 42842  97.3827   6.7348 0005416 323.7890  36.2983 15.30823643490957
LEMUR-2-ZACHARY         
1 42845U 17042W   26184.51328366  .00055199  00000+0  92276-3 0  9999
2 42845  97.3585  16.5115 0002317 307.6992  52.4050 15.51735586491736
LEMUR-2-AMANDA-SVANTE   
1 48269U 21034B   26184.72218815  .00036457  00000+0  10612-2 0  9990
2 48269  97.5753 263.4542 0003868 168.8216 191.3113 15.35322296283594
LEMUR-2-SPECIAL-K       
1 48273U 21034F   26184.17912459  .00201063  00000+0  16497-2 0  9993
2 48273  97.5649 272.2532 0005593 221.5890 138.4947 15.69836686284196
LEMUR-2-EMBRIONOVIS     
1 56970U 23084AQ  26185.12042702  .00017476  00000+0  46910-3 0  9991
2 56970  97.6316 329.9759 0007633 250.0564 109.9858 15.37986952170289
LEMUR-2-DEVERILL-M-T    
1 57391U 23100F   26185.06161394  .00034832  00000+0  85512-3 0  9996
2 57391  99.4455 228.7031 0004981 346.0189  14.0912 15.40610222163841
LEMUR-2-BASS            
1 58259U 23174D   26184.74345391  .00020308  00000+0  45159-3 0  9992
2 58259  97.3847 269.6928 0008049 112.3430 247.8671 15.43659511147913
LEMUR-2-JK0903EM1407    
1 58336U 23174CJ  26185.22860681  .00038967  00000+0  63368-3 0  9998
2 58336  97.3923 276.1897 0004465  68.8565 291.3164 15.52578542148370
LEMUR-2-MJR092620       
1 58340U 23174CN  26185.19060396  .00027154  00000+0  56620-3 0  9993
2 58340  97.3976 275.5395 0006240  66.4239 293.7665 15.45518305148278
LEMUR-2-NIMBUS2000      
1 58899U 24022A   26185.03434160  .00029162  00000+0  71327-3 0  9994
2 58899  97.4090  35.2523 0009768  64.6794 295.5463 15.40707114134862
LEMUR-2-VALHALLA        
1 58900U 24022B   26185.03500643  .00019924  00000+0  49676-3 0  9994
2 58900  97.4085  35.2329 0010284  60.2993 299.9276 15.40195193134869
LEMUR-2-CAEL            
1 58903U 24022E   26185.03041249  .00021527  00000+0  51358-3 0  9991
2 58903  97.4069  36.1943 0008340  46.7317 313.4624 15.41534845134934
LEMUR-2-JOHNNYTRUONG    
1 59146U 24043BA  26184.36775367  .00040710  00000+0  47153-3 0  9997
2 59146  97.5391 337.0873 0004563 128.0630 232.1040 15.61717750130567
LEMUR-2-TOMATOKECHUP    
1 60471U 24149D   26184.97808899  .00013325  00000+0  37752-3 0  9997
2 60471  97.3794 267.0710 0002800 142.9581 217.1857 15.36385232104747
LEMUR-2-STELLA          
1 60533U 24149BT  26184.75924016  .00013429  00000+0  78153-3 0  9997
2 60533  97.6735 267.2900 0001269 101.6081 258.5292 15.12166400103000
LEMUR-2-MARHISYAM       
1 60536U 24149BW  26185.20908443  .00013632  00000+0  80573-3 0  9992
2 60536  97.6878 268.2083 0003135  87.7673 272.3915 15.11598158103058
LEMUR-2-AHMED-ASRAR     
1 60576U 24149DN  26184.96209930  .00014646  00000+0  83015-3 0  9993
2 60576  97.7003 270.1182 0000311 318.3117  41.8090 15.13096104103109
LEMUR-2-LLOYD           
1 60577U 24149DP  26185.01342613  .00013307  00000+0  83146-3 0  9995
2 60577  97.6745 266.1544 0005263  98.3945 261.7881 15.09573260102933
LEMUR-2-SQUIRRELCOMM    
1 60578U 24149DQ  26185.11797402  .00008376  00000+0  55793-3 0  9994
2 60578  97.6701 265.9770 0005054   7.4037 352.7264 15.07345620102958
LEMUR-2-SIERRINI        
1 60579U 24149DR  26184.97116555  .00014526  00000+0  86478-3 0  9990
2 60579  97.6843 267.6410 0006409 119.8240 240.3628 15.11311030102998
LEMUR-2-WILSON          
1 62694U 25009CP  26184.95939954  .00003293  00000+0  30449-3 0  9996
2 62694  97.7019 263.1299 0002799  13.2325 346.8968 14.95238508 79866
LEMUR-2-STAR-FOX        
1 62696U 25009CR  26184.94071049  .00008946  00000+0  67372-3 0  9994
2 62696  97.6939 266.4303 0003826  77.4952 282.6701 15.02725317 80075
LEMUR-2-ARIANNA         
1 62699U 25009CU  26184.73941221  .00008928  00000+0  67249-3 0  9995
2 62699  97.6880 265.9919 0004182  82.6566 277.5134 15.02720243 80048
